[{"OBJECT_NAME":"STARLINK-1888","OBJECT_ID":"2020-088BB","EPOCH":"2026-03-09T21:33:21.537216","MEAN_MOTION":15.48275914,"ECCENTRICITY":0.00048731,"INCLINATION":53.0534,"RA_OF_ASC_NODE":278.4893,"ARG_OF_PERICENTER":159.2034,"MEAN_ANOMALY":200.9172,"EPHEMERIS_TYPE":0,"CLASSIFICATION_TYPE":"U","NORAD_CAT_ID":47171,"ELEMENT_SET_NO":999,"REV_AT_EPOCH":29218,"BSTAR":0.0014211074,"MEAN_MOTION_DOT":0.00076565,"MEAN_MOTION_DDOT":0},{"OBJECT_NAME":"STARLINK-36740","OBJECT_ID":"2026-026W","EPOCH":"2026-03-09T22:00:01.999584","MEAN_MOTION":15.491207,"ECCENTRICITY":0.00015501,"INCLINATION":97.2857,"RA_OF_ASC_NODE":123.4973,"ARG_OF_PERICENTER":83.5732,"MEAN_ANOMALY":115.3118,"EPHEMERIS_TYPE":0,"CLASSIFICATION_TYPE":"U","NORAD_CAT_ID":67741,"ELEMENT_SET_NO":999,"REV_AT_EPOCH":535,"BSTAR":0.0017457261,"MEAN_MOTION_DOT":0.00095789,"MEAN_MOTION_DDOT":0}]
